$$SOE
2461302.500000000, A.D. 2026-Sep-19 00:00:00.0000, -3.772844628154100E+08, 1.781229379465897E+08, -6.594449020093277E+07,
2461309.500000000, A.D. 2026-Sep-26 00:00:00.0000, -3.807871816162274E+08, 1.681303422997359E+08, -6.250974430575327E+07,
2461316.500000000, A.D. 2026-Oct-03 00:00:00.0000, -3.840420778746836E+08, 1.580284751721409E+08, -5.903428058968054E+07,
2461323.500000000, A.D. 2026-Oct-10 00:00:00.0000, -3.870444118934257E+08, 1.478228270023908E+08, -5.551996107767466E+07,
2461330.500000000, A.D. 2026-Oct-17 00:00:00.0000, -3.897895622421266E+08, 1.375190930715173E+08, -5.196872026461412E+07,
2461337.500000000, A.D. 2026-Oct-24 00:00:00.0000, -3.922730368132142E+08, 1.271231731674803E+08, -4.838256512283963E+07,
2461344.500000000, A.D. 2026-Oct-31 00:00:00.0000, -3.944904840663433E+08, 1.166411705454386E+08, -4.476357494705530E+07,
2461351.500000000, A.D. 2026-Nov-07 00:00:00.0000, -3.964377040946826E+08, 1.060793902244903E+08, -4.111390104947987E+07,
2461358.500000000, A.D. 2026-Nov-14 00:00:00.0000, -3.981106592802690E+08, 9.544433747538821E+07, -3.743576623913725E+07,
2461365.500000000, A.D. 2026-Nov-21 00:00:00.0000, -3.995054863151699E+08, 8.474271714872149E+07, -3.373146385190630E+07,
2461372.500000000, A.D. 2026-Nov-28 00:00:00.0000, -4.006185105499579E+08, 7.398143080534451E+07, -3.000335647512703E+07,
2461379.500000000, A.D. 2026-Dec-05 00:00:00.0000, -4.014462590083903E+08, 6.316757096659730E+07, -2.625387474201136E+07,
2461386.500000000, A.D. 2026-Dec-12 00:00:00.0000, -4.019854718536972E+08, 5.230841556985910E+07, -2.248551594603893E+07,
2461393.500000000, A.D. 2026-Dec-19 00:00:00.0000, -4.022331141421639E+08, 4.141142261017361E+07, -1.870084229260921E+07,
2461400.500000000, A.D. 2026-Dec-26 00:00:00.0000, -4.021863879550588E+08, 3.048422407851670E+07, -1.490247883867677E+07,
2461407.500000000, A.D. 2027-Jan-02 00:00:00.0000, -4.018427445783651E+08, 1.953461898973358E+07, -1.109311115503494E+07,
2461414.500000000, A.D. 2027-Jan-09 00:00:00.0000, -4.011998965546080E+08, 8.570565508411713E+06, -7.275482714994293E+06,
2461421.500000000, A.D. 2027-Jan-16 00:00:00.0000, -4.002558295095928E+08, -2.399827825882018E+06, -3.452392007952950E+06,
2461428.500000000, A.D. 2027-Jan-23 00:00:00.0000, -3.990088136429561E+08, -1.336831181564718E+07, 3.733106172090704E+05,
2461435.500000000, A.D. 2027-Jan-30 00:00:00.0000, -3.974574146256834E+08, -2.432650730928825E+07, 4.198726358586992E+06,
2461442.500000000, A.D. 2027-Feb-06 00:00:00.0000, -3.956005034070054E+08, -3.526591654424873E+07, 8.020911604996207E+06,
2461449.500000000, A.D. 2027-Feb-13 00:00:00.0000, -3.934372653167495E+08, -4.617793389917507E+07, 1.183688195478220E+07,
2461456.500000000, A.D. 2027-Feb-20 00:00:00.0000, -3.909672107559081E+08, -5.705385683200547E+07, 1.564361675485820E+07,
2461463.500000000, A.D. 2027-Feb-27 00:00:00.0000, -3.881901860148106E+08, -6.788490019637744E+07, 1.943806376017008E+07,
2461470.500000000, A.D. 2027-Mar-06 00:00:00.0000, -3.851063811374728E+08, -7.866221198098813E+07, 2.321714378359003E+07,
2461477.500000000, A.D. 2027-Mar-13 00:00:00.0000, -3.817163363644129E+08, -8.937688838058122E+07, 2.697775563853125E+07,
2461484.500000000, A.D. 2027-Mar-20 00:00:00.0000, -3.780209482149481E+08, -1.000199889868323E+08, 3.071678139510173E+07,
2461491.500000000, A.D. 2027-Mar-27 00:00:00.0000, -3.740214749429926E+08, -1.105825525963131E+08, 3.443109186943085E+07,
2461498.500000000, A.D. 2027-Apr-03 00:00:00.0000, -3.697195411031881E+08, -1.210556136241381E+08, 3.811755230450941E+07,
2461505.500000000, A.D. 2027-Apr-10 00:00:00.0000, -3.651171411085274E+08, -1.314302190346165E+08, 4.177302821722149E+07,
2461512.500000000, A.D. 2027-Apr-17 00:00:00.0000, -3.602166417038645E+08, -1.416974457327450E+08, 4.539439138422542E+07,
2461519.500000000, A.D. 2027-Apr-24 00:00:00.0000, -3.550207832286779E+08, -1.518484184041886E+08, 4.897852592795207E+07,
2461526.500000000, A.D. 2027-May-01 00:00:00.0000, -3.495326793297201E+08, -1.618743276976060E+08, 5.252233444944339E+07,
2461533.500000000, A.D. 2027-May-08 00:00:00.0000, -3.437558147847860E+08, -1.717664479186143E+08, 5.602274421171661E+07,
2461540.500000000, A.D. 2027-May-15 00:00:00.0000, -3.376940429113981E+08, -1.815161531959141E+08, 5.947671355854865E+07,
2461547.500000000, A.D. 2027-May-22 00:00:00.0000, -3.313515841105788E+08, -1.911149346230159E+08, 6.288123846934995E+07,
2461554.500000000, A.D. 2027-May-29 00:00:00.0000, -3.247330221874148E+08, -2.005544197537577E+08, 6.623335879156719E+07,
2461561.500000000, A.D. 2027-Jun-05 00:00:00.0000, -3.178432975696796E+08, -2.098263912257766E+08, 6.953016429441799E+07,
2461568.500000000, A.D. 2027-Jun-12 00:00:00.0000, -3.106876994436612E+08, -2.189228039838764E+08, 7.276880073116019E+07,
2461575.500000000, A.D. 2027-Jun-19 00:00:00.0000, -3.032718571572699E+08, -2.278358019442438E+08, 7.594647583089936E+07,
2461582.500000000, A.D. 2027-Jun-26 00:00:00.0000, -2.956017306403766E+08, -2.365577342707411E+08, 7.906046514072044E+07,
2461589.500000000, A.D. 2027-Jul-03 00:00:00.0000, -2.876835997503266E+08, -2.450811711679172E+08, 8.210811767599949E+07,
2461596.500000000, A.D. 2027-Jul-10 00:00:00.0000, -2.795240525548344E+08, -2.533989190975951E+08, 8.508686134686190E+07,
2461603.500000000, A.D. 2027-Jul-17 00:00:00.0000, -2.711299725726432E+08, -2.615040353774146E+08, 8.799420812614389E+07,
2461610.500000000, A.D. 2027-Jul-24 00:00:00.0000, -2.625085248796786E+08, -2.693898421490134E+08, 9.082775891281407E+07,
2461617.500000000, A.D. 2027-Jul-31 00:00:00.0000, -2.536671407405708E+08, -2.770499394113167E+08, 9.358520804777420E+07,
2461624.500000000, A.D. 2027-Aug-07 00:00:00.0000, -2.446135010438359E+08, -2.844782159045399E+08, 9.626434757202014E+07,
2461631.500000000, A.D. 2027-Aug-14 00:00:00.0000, -2.353555209242400E+08, -2.916688580426697E+08, 9.886307139694907E+07,
2461638.500000000, A.D. 2027-Aug-21 00:00:00.0000, -2.259013350413792E+08, -2.986163602125303E+08, 1.013793790375591E+08,
2461645.500000000, A.D. 2027-Aug-28 00:00:00.0000, -2.162592801763697E+08, -3.053155351996250E+08, 1.038113786785989E+08,
2461652.500000000, A.D. 2027-Sep-04 00:00:00.0000, -2.064378764241155E+08, -3.117615222085715E+08, 1.061572898758086E+08,
2461659.500000000, A.D. 2027-Sep-11 00:00:00.0000, -1.964458084735276E+08, -3.179497931165631E+08, 1.084154459575144E+08,
2461666.500000000, A.D. 2027-Sep-18 00:00:00.0000, -1.862919069396383E+08, -3.238761575958983E+08, 1.105842960550083E+08,
2461673.500000000, A.D. 2027-Sep-25 00:00:00.0000, -1.759851296157204E+08, -3.295367671786232E+08, 1.126624067313786E+08,
2461680.500000000, A.D. 2027-Oct-02 00:00:00.0000, -1.655345426671907E+08, -3.349281182401794E+08, 1.146484632048584E+08,
2461687.500000000, A.D. 2027-Oct-09 00:00:00.0000, -1.549493018408429E+08, -3.400470539182816E+08, 1.165412701680327E+08,
2461694.500000000, A.D. 2027-Oct-16 00:00:00.0000, -1.442386337195399E+08, -3.448907650396190E+08, 1.183397521981695E+08,
2461701.500000000, A.D. 2027-Oct-23 00:00:00.0000, -1.334118168509809E+08, -3.494567900840068E+08, 1.200429537410432E+08,
2461708.500000000, A.D. 2027-Oct-30 00:00:00.0000, -1.224781624582789E+08, -3.537430136068941E+08, 1.216500386920868E+08,
2461715.500000000, A.D. 2027-Nov-06 00:00:00.0000, -1.114469959721196E+08, -3.577476620310928E+08, 1.231602897847688E+08,
2461722.500000000, A.D. 2027-Nov-13 00:00:00.0000, -1.003276414405835E+08, -3.614692989304076E+08, 1.245731078129789E+08,
2461729.500000000, A.D. 2027-Nov-20 00:00:00.0000, -8.912940598085660E+07, -3.649068220448487E+08, 1.258880102611029E+08,
2461736.500000000, A.D. 2027-Nov-27 00:00:00.0000, -7.786156271795659E+07, -3.680594591214526E+08, 1.271046294572807E+08,
2461743.500000000, A.D. 2027-Dec-04 00:00:00.0000, -6.653333429151688E+07, -3.709267617262257E+08, 1.282227105319722E+08,
2461750.500000000, A.D. 2027-Dec-11 00:00:00.0000, -5.515387753136904E+07, -3.735085980513333E+08, 1.292421091747029E+08,
2461757.500000000, A.D. 2027-Dec-18 00:00:00.0000, -4.373226906934194E+07, -3.758051451182596E+08, 1.301627891569603E+08,
2461764.500000000, A.D. 2027-Dec-25 00:00:00.0000, -3.227749176996745E+07, -3.778168804422767E+08, 1.309848196281504E+08,
2461771.500000000, A.D. 2028-Jan-01 00:00:00.0000, -2.079842196594964E+07, -3.795445732082603E+08, 1.317083722036477E+08,
$$EOE